{
  "type": "FeatureCollection",
  "features": [
    {
      "type": "Feature",
      "properties": {
        "route_id": 1,
        "tower_count": 55,
        "note": "pixel coordinates only \u2014 apply Phase 3 georef for lat/lon"
      },
      "geometry": {
        "type": "LineString",
        "coordinates": [
          [
            8444.0,
            2092.5
          ],
          [
            8475.7,
            2638.6
          ],
          [
            7648.7,
            1887.7
          ],
          [
            6901.0,
            1375.7
          ],
          [
            6989.7,
            865.5
          ],
          [
            7440.0,
            1915.6
          ],
          [
            6902.9,
            2747.0
          ],
          [
            5853.0,
            2382.6
          ],
          [
            5213.9,
            2369.0
          ],
          [
            5806.1,
            339.2
          ],
          [
            10138.7,
            4265.9
          ],
          [
            3936.6,
            1345.0
          ],
          [
            3374.7,
            1328.2
          ],
          [
            11676.4,
            411.9
          ],
          [
            8287.2,
            3471.4
          ],
          [
            12595.7,
            1136.9
          ],
          [
            10123.6,
            383.3
          ],
          [
            8333.9,
            1849.9
          ],
          [
            10825.2,
            145.8
          ],
          [
            9872.0,
            4878.1
          ],
          [
            7411.9,
            1945.8
          ],
          [
            8315.1,
            432.2
          ],
          [
            11726.8,
            639.8
          ],
          [
            6956.9,
            1386.9
          ],
          [
            7292.8,
            556.0
          ],
          [
            9075.0,
            3930.8
          ],
          [
            5379.6,
            1070.5
          ],
          [
            7880.5,
            3728.2
          ],
          [
            5841.7,
            1961.9
          ],
          [
            9881.5,
            246.9
          ],
          [
            5383.5,
            1261.9
          ],
          [
            10212.1,
            1785.1
          ],
          [
            4583.1,
            1342.7
          ],
          [
            10729.6,
            912.8
          ],
          [
            10575.3,
            593.0
          ],
          [
            4576.7,
            913.8
          ],
          [
            9345.5,
            1117.2
          ],
          [
            9659.8,
            2484.5
          ],
          [
            10100.2,
            1577.2
          ],
          [
            6591.4,
            963.2
          ],
          [
            8197.1,
            916.3
          ],
          [
            9058.0,
            3204.9
          ],
          [
            9637.7,
            858.7
          ],
          [
            9035.5,
            4951.0
          ],
          [
            3946.0,
            363.4
          ],
          [
            9006.6,
            4951.3
          ],
          [
            9978.7,
            1008.3
          ],
          [
            7282.2,
            1227.1
          ],
          [
            10067.9,
            881.6
          ],
          [
            6183.9,
            961.0
          ],
          [
            6154.6,
            1475.2
          ],
          [
            6142.5,
            655.9
          ],
          [
            6046.8,
            285.5
          ],
          [
            6039.1,
            554.1
          ],
          [
            7742.4,
            4534.5
          ]
        ]
      }
    },
    {
      "type": "Feature",
      "properties": {
        "route_id": 2,
        "tower_count": 11,
        "note": "pixel coordinates only \u2014 apply Phase 3 georef for lat/lon"
      },
      "geometry": {
        "type": "LineString",
        "coordinates": [
          [
            3799.8,
            4074.1
          ],
          [
            3395.7,
            3094.1
          ],
          [
            3415.7,
            3457.6
          ],
          [
            3820.1,
            3205.9
          ],
          [
            4045.7,
            3617.5
          ],
          [
            3769.4,
            2595.3
          ],
          [
            3073.1,
            3548.9
          ],
          [
            2370.0,
            3571.8
          ],
          [
            2724.2,
            3458.7
          ],
          [
            3662.1,
            2302.9
          ],
          [
            4072.3,
            3430.3
          ]
        ]
      }
    },
    {
      "type": "Feature",
      "properties": {
        "route_id": 3,
        "tower_count": 10,
        "note": "pixel coordinates only \u2014 apply Phase 3 georef for lat/lon"
      },
      "geometry": {
        "type": "LineString",
        "coordinates": [
          [
            2150.5,
            6317.4
          ],
          [
            3199.1,
            6544.6
          ],
          [
            2518.9,
            6566.5
          ],
          [
            2000.1,
            5731.2
          ],
          [
            2732.9,
            5564.9
          ],
          [
            3083.3,
            6077.2
          ],
          [
            3095.3,
            5596.6
          ],
          [
            2843.2,
            7067.4
          ],
          [
            3909.2,
            5765.8
          ],
          [
            3146.7,
            7164.1
          ]
        ]
      }
    },
    {
      "type": "Feature",
      "properties": {
        "route_id": 4,
        "tower_count": 5,
        "note": "pixel coordinates only \u2014 apply Phase 3 georef for lat/lon"
      },
      "geometry": {
        "type": "LineString",
        "coordinates": [
          [
            16350.6,
            3615.4
          ],
          [
            16158.2,
            3165.9
          ],
          [
            16184.2,
            2020.2
          ],
          [
            16122.7,
            1614.9
          ],
          [
            16237.8,
            3849.6
          ]
        ]
      }
    },
    {
      "type": "Feature",
      "properties": {
        "route_id": 5,
        "tower_count": 3,
        "note": "pixel coordinates only \u2014 apply Phase 3 georef for lat/lon"
      },
      "geometry": {
        "type": "LineString",
        "coordinates": [
          [
            2241.3,
            2095.2
          ],
          [
            2213.1,
            915.6
          ],
          [
            2709.0,
            438.7
          ]
        ]
      }
    },
    {
      "type": "Feature",
      "properties": {
        "route_id": 6,
        "tower_count": 3,
        "note": "pixel coordinates only \u2014 apply Phase 3 georef for lat/lon"
      },
      "geometry": {
        "type": "LineString",
        "coordinates": [
          [
            3690.5,
            8941.5
          ],
          [
            3620.0,
            8619.0
          ],
          [
            2978.9,
            8728.0
          ]
        ]
      }
    },
    {
      "type": "Feature",
      "properties": {
        "route_id": 7,
        "tower_count": 2,
        "note": "pixel coordinates only \u2014 apply Phase 3 georef for lat/lon"
      },
      "geometry": {
        "type": "LineString",
        "coordinates": [
          [
            3922.6,
            8158.8
          ],
          [
            3673.2,
            8596.8
          ]
        ]
      }
    }
  ]
}